{"type":"FeatureCollection","properties":{"source":"TeleGeography Submarine Cable Map (submarinecablemap.com), fetched live 2026-08-21","source_url":"https://www.submarinecablemap.com/api/v3/cable/cable-geo.json","license":"CC BY-NC-SA 3.0 -- https://creativecommons.org/licenses/by-nc-sa/3.0/","attribution":"Cable data \u00a9 TeleGeography, submarinecablemap.com","note":"Trimmed to cables/landing points with at least one point in the Baltic region bbox (lat 53-66, lon 8-31); coordinates rounded to 4 decimal places (~11m). Full cable geometry kept for any cable that touches the region, not clipped at the bbox edge, so routes remain visually continuous.","cable_count":59,"landing_point_count":98},"features":[{"type":"Feature","properties":{"layer":"cable","id":"kattegat-cable","name":"Kattegat Cable"},"geometry":{"type":"MultiLineString","coordinates":[[[10.5167,57.331],[10.7746,57.3844],[11.7464,57.4214],[11.8994,57.4554]]]}},{"type":"Feature","properties":{"layer":"cable","id":"verena","name":"Verena"},"geometry":{"type":"MultiLineString","coordinates":[[[-0.4112,54.2764],[7.6182,55.3701],[8.2167,55.4039],[8.4472,55.465]]]}},{"type":"Feature","properties":{"layer":"cable","id":"mjolner-east","name":"Mjolner East"},"geometry":{"type":"MultiLineString","coordinates":[[[24.7525,59.4364],[25.1826,59.6707],[25.3033,59.9765],[24.9325,60.1712]],[[19.0553,57.863],[19.8164,58.1421],[21.1503,58.3744],[22.0381,58.36]]]}},{"type":"Feature","properties":{"layer":"cable","id":"mjolner-west","name":"Mjolner West"},"geometry":{"type":"MultiLineString","coordinates":[[[18.3704,60.2584],[19.2601,60.291],[20.716,60.808],[21.4462,60.6795]]]}},{"type":"Feature","properties":{"layer":"cable","id":"finland-estonia-connection-1-fec-1","name":"Finland Estonia Connection 1 (FEC-1)"},"geometry":{"type":"MultiLineString","coordinates":[[[24.7525,59.4364],[24.9751,59.6797],[25.0876,59.9624],[24.9326,60.1712]]]}},{"type":"Feature","properties":{"layer":"cable","id":"e-finest","name":"E-FINEST"},"geometry":{"type":"MultiLineString","coordinates":[[[24.6558,60.2068],[24.6376,59.9624],[24.6376,59.6797],[24.7525,59.4364]]]}},{"type":"Feature","properties":{"layer":"cable","id":"finland-estonia-connection-2-fec-2","name":"Finland Estonia Connection 2 (FEC-2)"},"geometry":{"type":"MultiLineString","coordinates":[[[24.7525,59.4364],[24.8626,59.6797],[24.9751,59.9624],[24.9326,60.1712]]]}},{"type":"Feature","properties":{"layer":"cable","id":"vstervik-visby","name":"V\u00e4stervik-Visby"},"geometry":{"type":"MultiLineString","coordinates":[[[16.637,57.756],[17.3251,57.7724],[18.0001,57.7124],[18.3,57.6384]]]}},{"type":"Feature","properties":{"layer":"cable","id":"oskarshamn-visby","name":"Oskarshamn-Visby"},"geometry":{"type":"MultiLineString","coordinates":[[[18.3,57.6384],[18.0001,57.6522],[17.3251,57.5317],[16.6626,57.296],[16.4425,57.2652]]]}},{"type":"Feature","properties":{"layer":"cable","id":"globalconnect-6-gc6","name":"GlobalConnect 6 (GC6)"},"geometry":{"type":"MultiLineString","coordinates":[[[9.9972,55.7086],[10.0914,55.5678]]]}},{"type":"Feature","properties":{"layer":"cable","id":"ioema-1","name":"IOEMA-1"},"geometry":{"type":"MultiLineString","coordinates":[[[2.7001,52.0043],[3.3751,52.0043],[4.3174,52.084]],[[3.0376,52.3569],[2.2501,52.3492],[1.5748,52.2053]],[[7.2001,55.78],[7.6501,55.7167],[8.3292,55.7517]],[[7.4251,54.166],[7.9876,53.9017],[8.1001,53.7024],[8.1069,53.5323]],[[5.8501,53.7689],[6.5251,53.6357],[6.816,53.4428]],[[1.4395,51.3588],[2.0251,51.8656],[2.7001,52.0043],[3.0376,52.3569],[3.8251,52.6915],[4.2751,53.2336],[5.8501,53.7689],[7.4251,54.166],[7.2001,55.4624],[7.2001,55.78],[7.3126,56.5525],[8.1001,57.9321],[7.9948,58.1438]]]}},{"type":"Feature","properties":{"layer":"cable","id":"sto-hel-one","name":"STO-HEL-One"},"geometry":{"type":"MultiLineString","coordinates":[[[18.5654,60.032],[18.9001,60.0374],[19.5751,60.0374],[19.805,60.0993]],[[19.7248,60.2726],[19.9688,60.3172],[20.1376,60.3728],[20.2501,60.4839],[20.7001,60.7048],[21.1501,60.7048],[21.4462,60.6795]]]}},{"type":"Feature","properties":{"layer":"cable","id":"aurora","name":"Aurora"},"geometry":{"type":"MultiLineString","coordinates":[[[12.4149,55.6473],[12.4876,55.5261],[12.6001,55.4942],[12.9167,55.5333]],[[18.2503,58.9361],[18.2251,58.7586],[18.3376,58.6417],[18.7876,58.0513],[19.0553,57.863]],[[18.3,57.6384],[18.0001,57.592],[17.3251,57.4712],[17.0085,57.3248]],[[16.4681,56.2457],[16.0876,56.0322],[15.3001,55.6532],[14.8363,55.2482]],[[14.2408,55.4339],[14.5126,55.3346],[14.7083,55.1826]],[[14.7083,55.101],[14.4001,54.8841],[13.6487,54.5196]]]}},{"type":"Feature","properties":{"layer":"cable","id":"norfest","name":"Norfest"},"geometry":{"type":"MultiLineString","coordinates":[[[10.5751,59.0684],[10.9126,58.9815],[11.1184,58.9683]],[[10.2376,58.8944],[10.0164,59.0811]],[[9.1126,58.3674],[8.7587,58.47]],[[8.3251,57.9321],[7.9948,58.1438]],[[6.5251,57.9287],[6.7869,58.0644]],[[10.7008,59.4592],[10.5712,59.3027],[10.5751,59.0684],[10.2376,58.8944],[9.9001,58.7196],[9.4501,58.4852],[9.1126,58.3674],[8.6626,58.0712],[8.3251,57.9321],[7.8751,57.8723],[6.8831,57.8558],[6.5251,57.9287],[5.9626,58.2624],[5.9887,58.4241],[5.5126,58.4852],[5.2876,58.6417],[5.2876,58.8169],[5.5126,58.9912],[5.7308,58.9708]],[[10.748,59.9186],[10.5751,59.7553],[10.6308,59.6645],[10.6032,59.5279],[10.7008,59.4592]]]}},{"type":"Feature","properties":{"layer":"cable","id":"eastern-light-sweden-finland-ii","name":"Eastern Light Sweden-Finland II"},"geometry":{"type":"MultiLineString","coordinates":[[[24.6558,60.2068],[24.4126,60.1309],[23.8501,60.0749],[23.1751,60.0187],[22.9668,59.8234],[22.7251,59.7931],[21.3751,59.9061],[20.908,59.921],[20.2501,59.6228],[18.9001,59.5088],[18.3376,59.4231],[17.9436,59.4029]]]}},{"type":"Feature","properties":{"layer":"cable","id":"hronn","name":"Hronn"},"geometry":{"type":"MultiLineString","coordinates":[[[5.4001,55.3559],[5.2876,55.3239],[5.1805,55.3222]],[[8.4069,55.4485],[7.6501,55.3985],[5.4001,55.3559],[4.5131,55.4187]]]}},{"type":"Feature","properties":{"layer":"cable","id":"kingisepp-kaliningrad-system-baltika","name":"Kingisepp-Kaliningrad System (Baltika)"},"geometry":{"type":"MultiLineString","coordinates":[[[28.6613,59.4379],[27.3786,59.7658],[26.1073,59.9453],[23.8473,59.5341],[22.3808,59.1399],[21.3084,58.5922],[20.5237,57.625],[19.312,56.4174],[20.1183,55.256],[20.6022,54.9704]]]}},{"type":"Feature","properties":{"layer":"cable","id":"havsil","name":"Havsil"},"geometry":{"type":"MultiLineString","coordinates":[[[8.6162,57.1117],[8.6626,57.2893],[8.2126,57.9321],[7.9963,58.1511]]]}},{"type":"Feature","properties":{"layer":"cable","id":"n0r5ke-viking","name":"N0r5ke Viking"},"geometry":{"type":"MultiLineString","coordinates":[[[9.6377,63.6195],[9.8157,63.5763],[9.9001,63.4885],[10.2938,63.4634],[10.3921,63.431]],[[7.1607,62.7372],[7.4251,62.6608],[7.6816,62.564]],[[9.6632,63.6884],[9.6188,63.6762],[9.6377,63.6195],[9.1126,63.5429],[8.9752,63.5046],[8.694,63.4082],[8.3809,63.3615],[8.0934,63.301],[7.8751,63.1729],[7.7297,63.1108],[7.7626,63.0202],[7.6501,62.918],[7.4251,62.8154],[7.1607,62.7372],[6.8626,62.7639],[6.6376,62.7382],[6.4658,62.613],[6.3001,62.6608],[6.1876,62.6091],[6.1744,62.4715],[5.9626,62.5054],[5.8501,62.4534],[5.4001,62.2969],[5.2876,62.2445],[5.3438,62.1396],[5.5223,62.036],[5.4563,61.9814],[5.4985,61.9355],[5.0626,61.9814],[4.8376,61.9286],[4.7251,61.8225],[4.7251,61.7161],[4.9759,61.5963],[4.7251,61.5557],[4.7251,61.4484],[4.9501,61.2326],[5.2934,61.1722],[4.8376,61.0152],[4.7251,60.7964],[4.8555,60.622],[5.0626,60.5761],[5.2876,60.4654],[5.3328,60.3907]]]}},{"type":"Feature","properties":{"layer":"cable","id":"eastern-light-sweden-finland-i","name":"Eastern Light Sweden-Finland I"},"geometry":{"type":"MultiLineString","coordinates":[[[18.0628,59.3323],[18.9001,59.4517],[20.2501,59.5659],[21.3751,59.6797],[22.7251,59.7364],[22.9668,59.8234],[23.1751,59.7364],[23.8501,59.7364],[24.4126,59.8496],[24.9325,60.1712],[25.2001,60.0749],[26.1001,60.0749],[26.7751,60.2986],[26.8836,60.5011]]]}},{"type":"Feature","properties":{"layer":"cable","id":"energinet-laeso-varberg","name":"Energinet Laeso-Varberg"},"geometry":{"type":"MultiLineString","coordinates":[[[10.8872,57.257],[11.0251,57.1776],[11.7001,57.0861],[12.2513,57.1053]]]}},{"type":"Feature","properties":{"layer":"cable","id":"energinet-lyngsa-laeso","name":"Energinet Lyngsa-Laeso"},"geometry":{"type":"MultiLineString","coordinates":[[[10.5146,57.2449],[10.6876,57.2234],[10.8872,57.257]]]}},{"type":"Feature","properties":{"layer":"cable","id":"skagenfiber-west","name":"Skagenfiber West"},"geometry":{"type":"MultiLineString","coordinates":[[[10.0164,59.0811],[10.0126,58.9332],[9.9001,58.3477],[9.9001,57.8124],[9.9593,57.5882]]]}},{"type":"Feature","properties":{"layer":"cable","id":"polar-circle-cable","name":"Polar Circle Cable"},"geometry":{"type":"MultiLineString","coordinates":[[[10.3921,63.431],[10.2938,63.476],[9.9001,63.5011],[9.8438,63.5763],[9.6751,63.6762],[9.5063,63.6762],[9.4501,63.7261],[9.4501,63.8255],[9.6188,63.9246],[9.9001,64.1217],[10.2376,64.3174],[10.4626,64.4633],[10.8001,64.5359],[11.0251,64.7047],[11.2374,64.8621],[11.4751,64.9678],[11.7001,65.0153],[11.9251,65.1339],[12.2078,65.4736],[12.1782,65.5562],[12.2626,65.626],[12.5438,65.834],[12.6315,66.0215],[12.7688,66.1544],[13.0183,66.1981],[12.9938,66.3808],[13.0501,66.4483],[12.9376,66.5605],[13.0501,66.7166],[13.5001,66.96],[13.9501,67.1354],[14.4001,67.286],[14.5126,67.4395],[14.9063,67.6115],[15.1313,67.6543],[15.3563,67.7823],[15.5813,67.9096],[15.8876,67.9729],[16.1438,68.0572],[16.1719,68.1412],[16.1271,68.2207],[16.0652,68.2897],[16.1524,68.3619],[16.3126,68.3864],[16.6688,68.4174],[17.0733,68.4079],[17.56,68.4205]]]}},{"type":"Feature","properties":{"layer":"cable","id":"rnne-rdvig","name":"R\u00f8nne-R\u00f8dvig"},"geometry":{"type":"MultiLineString","coordinates":[[[12.3719,55.2561],[12.8251,55.1422],[14.4001,55.0778],[14.7084,55.101]]]}},{"type":"Feature","properties":{"layer":"cable","id":"nordbalt","name":"NordBalt"},"geometry":{"type":"MultiLineString","coordinates":[[[15.9087,56.7438],[16.0876,56.5938],[16.2001,56.3452],[16.3126,56.0322],[17.3251,55.7167],[20.4751,55.7167],[21.15,55.6957]]]}},{"type":"Feature","properties":{"layer":"cable","id":"havfrueaec-2","name":"Havfrue/AEC-2"},"geometry":{"type":"MultiLineString","coordinates":[[[7.9963,58.1511],[7.9876,57.9321],[6.3001,57.5719],[4.5001,57.5719]],[[-74.0629,40.1528],[-71.0999,40.5585],[-68.3999,41.2388],[-61.1999,42.4124],[-50.3999,44.6948],[-39.5999,47.5023],[-23.3999,52.9634],[-16.1999,55.0778],[-8.9999,58.9912],[-5.3999,59.6797],[-1.7999,59.4517],[1.8001,58.5244],[4.5001,57.5719],[5.4001,56.7175],[6.3001,56.2203],[7.2001,55.8432],[7.6501,55.78],[8.3292,55.7517]],[[-16.1999,55.0778],[-12.5999,54.8194],[-10.7999,54.166],[-10.3499,53.9017],[-9.6965,53.7708]]]}},{"type":"Feature","properties":{"layer":"cable","id":"havhingstennorth-sea-connect-nsc","name":"Havhingsten/North Sea Connect (NSC)"},"geometry":{"type":"MultiLineString","coordinates":[[[8.1932,55.7646],[7.6501,55.5261],[7.2001,55.5261],[5.4001,55.5473],[3.1501,55.4624],[-0.8999,55.0778],[-1.6178,54.9782]]]}},{"type":"Feature","properties":{"layer":"cable","id":"cobracable","name":"COBRAcable"},"geometry":{"type":"MultiLineString","coordinates":[[[8.7184,55.5231],[8.3837,55.3736],[7.6448,55.3246],[6.9751,54.034],[6.816,53.4428]]]}},{"type":"Feature","properties":{"layer":"cable","id":"skagerrak-4","name":"Skagerrak 4"},"geometry":{"type":"MultiLineString","coordinates":[[[7.9963,58.1511],[8.4376,57.9321],[8.7751,57.5719],[9.1126,57.1471],[9.1126,56.8407],[9.2251,56.7175],[9.2813,56.5938],[9.3376,56.5628],[9.6117,56.5108]]]}},{"type":"Feature","properties":{"layer":"cable","id":"c-lion1","name":"C-Lion1"},"geometry":{"type":"MultiLineString","coordinates":[[[24.9325,60.1712],[24.4126,59.7364],[23.8501,59.6228],[23.1751,59.4517],[22.2751,59.2222],[21.1501,58.6417],[20.2501,57.5719],[19.1251,56.4697],[17.3251,55.8432],[15.3001,55.5897],[14.4001,55.3346],[13.5001,54.9488],[12.6001,54.6895],[12.1501,54.2975],[12.0376,54.166],[12.1325,54.0792]],[[23.1751,59.4517],[22.9501,59.7364],[22.9668,59.8234]]]}},{"type":"Feature","properties":{"layer":"cable","id":"atlantic-crossing-1-ac-1","name":"Atlantic Crossing-1 (AC-1)"},"geometry":{"type":"MultiLineString","coordinates":[[[-72.9123,40.7735],[-71.0999,40.6439],[-68.3999,41.4077],[-61.1999,42.7437],[-50.3999,45.1727],[-39.5999,48.1068],[-23.3999,53.5021],[-16.1999,55.5897],[-8.9999,59.2222],[-5.3999,59.7931],[-1.7999,59.5659],[1.8001,58.6417],[5.4001,56.4697],[7.6501,55.0778],[8.1001,54.9488],[8.3834,54.8984]],[[-5.6985,50.0787],[-6.2999,50.1673],[-8.0999,50.1673],[-10.7999,49.8781],[-16.1999,49.0003],[-23.3999,47.8054],[-39.5999,43.7272],[-50.3999,41.0693],[-61.1999,40.0437],[-68.3999,40.2157],[-71.0999,40.0437],[-72.9123,40.7735]],[[8.3834,54.8984],[8.1001,54.8194],[7.2001,54.5593],[5.4001,53.7689],[4.5001,53.2336],[4.2751,52.8277],[4.3876,52.6233],[4.6568,52.4864],[4.2751,52.4865],[3.6001,52.3569],[3.1501,52.1426],[2.4751,51.5868],[1.4615,50.981],[0.9001,50.5262],[0.0001,50.1673],[-2.2499,50.0229],[-3.5999,49.8781],[-4.4999,49.8056],[-5.3999,49.8781],[-5.6985,50.0787]]]}},{"type":"Feature","properties":{"layer":"cable","id":"baltica","name":"Baltica"},"geometry":{"type":"MultiLineString","coordinates":[[[11.94,54.5772],[12.6001,54.6244],[13.5001,54.8841],[14.4001,54.9488],[14.8501,54.9488],[14.9922,55.0311]],[[13.8283,55.4313],[13.9501,55.3346],[14.4001,55.0133],[14.8501,55.0133],[14.9922,55.0311],[15.0751,54.8841],[15.4126,54.5593],[15.5751,54.1726]]]}},{"type":"Feature","properties":{"layer":"cable","id":"sweden-latvia","name":"Sweden-Latvia"},"geometry":{"type":"MultiLineString","coordinates":[[[21.5701,57.3897],[21.1501,57.3905],[19.3501,57.7524],[19.0419,57.863],[18.9001,58.0513],[18.5626,58.6417],[18.5626,59.1069],[18.3376,59.2797],[18.0628,59.3323]]]}},{"type":"Feature","properties":{"layer":"cable","id":"bcs-east-west-interlink","name":"BCS East-West Interlink"},"geometry":{"type":"MultiLineString","coordinates":[[[21.0827,56.0285],[20.7001,56.1577],[19.1251,57.3298],[18.8295,57.4397]]]}},{"type":"Feature","properties":{"layer":"cable","id":"bcs-north---phase-1","name":"BCS North - Phase 1"},"geometry":{"type":"MultiLineString","coordinates":[[[24.9325,60.1712],[24.4126,59.9061],[23.8501,59.7931],[22.9668,59.8234],[22.6126,59.9061],[22.2751,60.0187],[22.2986,60.3058],[22.0501,60.0749],[21.3751,59.8496],[20.2501,59.7364],[19.9126,59.9624],[19.9378,60.114],[19.6876,59.9624],[19.1251,59.6228],[18.6884,59.2928]]]}},{"type":"Feature","properties":{"layer":"cable","id":"bcs-north---phase-2","name":"BCS North - Phase 2"},"geometry":{"type":"MultiLineString","coordinates":[[[26.8836,60.5011],[27.0001,60.3543],[27.1688,60.1309],[27.4501,59.9624],[28.1251,59.8496],[28.5,59.8]],[[26.8836,60.5011],[26.7751,60.3543],[26.1001,60.1309],[25.2001,60.1309],[24.9325,60.1712]]]}},{"type":"Feature","properties":{"layer":"cable","id":"botnia","name":"Botnia"},"geometry":{"type":"MultiLineString","coordinates":[[[21.6164,63.0954],[21.3751,63.0967],[21.1501,63.0967],[20.7001,63.2743],[20.4751,63.5262],[20.3943,63.7025],[20.263,63.826]]]}},{"type":"Feature","properties":{"layer":"cable","id":"cantat-3","name":"CANTAT-3"},"geometry":{"type":"MultiLineString","coordinates":[[[7.2,55.5898],[7.6501,55.5897],[8.3292,55.7517]],[[4.5001,55.9693],[4.9501,56.095]],[[4.2285,56.0785],[4.5001,55.9693],[4.5643,55.8043],[4.6126,55.7473],[4.7485,55.7159]],[[7.2001,55.5897],[6.3001,55.8432],[4.9501,56.095]]]}},{"type":"Feature","properties":{"layer":"cable","id":"danica-north","name":"Danica North"},"geometry":{"type":"MultiLineString","coordinates":[[[12.9555,55.7706],[12.7166,55.78],[12.5456,55.7208]]]}},{"type":"Feature","properties":{"layer":"cable","id":"danice","name":"DANICE"},"geometry":{"type":"MultiLineString","coordinates":[[[-20.1419,63.6424],[-20.6999,63.3249],[-20.6999,62.9862],[-19.7999,62.5054],[-14.3999,62.2969],[-10.7999,62.7124],[-7.4249,62.8154],[-2.2499,62.5054],[0.4501,62.087],[2.0251,61.2326],[2.9251,60.3543],[3.8251,58.0513],[5.1751,56.2203],[6.3001,55.9693],[7.2001,55.7167],[7.6501,55.6532],[8.3292,55.7517]]]}},{"type":"Feature","properties":{"layer":"cable","id":"denmark-sweden-17","name":"Denmark-Sweden 17"},"geometry":{"type":"MultiLineString","coordinates":[[[12.5369,56.0751],[12.5628,56.105],[12.5886,56.1349]]]}},{"type":"Feature","properties":{"layer":"cable","id":"denmark-sweden-18","name":"Denmark-Sweden 18"},"geometry":{"type":"MultiLineString","coordinates":[[[12.5922,56.0306],[12.644,56.0373],[12.6958,56.0439]]]}},{"type":"Feature","properties":{"layer":"cable","id":"elektra-globalconnect-1-gc1","name":"Elektra-GlobalConnect 1 (GC1)"},"geometry":{"type":"MultiLineString","coordinates":[[[11.94,54.5772],[11.9251,54.494],[11.9251,54.2975],[12.1325,54.0792]]]}},{"type":"Feature","properties":{"layer":"cable","id":"fehmarn-blt","name":"Fehmarn B\u00e4lt"},"geometry":{"type":"MultiLineString","coordinates":[[[11.2126,54.4962],[11.2501,54.593],[11.3586,54.6631]]]}},{"type":"Feature","properties":{"layer":"cable","id":"finland-estonia-2-eesf-2","name":"Finland-Estonia 2 (EESF-2)"},"geometry":{"type":"MultiLineString","coordinates":[[[24.7525,59.4364],[25.0876,59.6797],[25.2001,59.9624],[25.0876,60.0749],[24.9325,60.1712]]]}},{"type":"Feature","properties":{"layer":"cable","id":"germany-denmark-3","name":"Germany-Denmark 3"},"geometry":{"type":"MultiLineString","coordinates":[[[11.94,54.5772],[12.0376,54.494],[12.0376,54.2975],[12.1496,54.1916]]]}},{"type":"Feature","properties":{"layer":"cable","id":"globalconnect-2-gc2","name":"GlobalConnect 2 (GC2)"},"geometry":{"type":"MultiLineString","coordinates":[[[10.5167,57.331],[10.8001,57.451],[11.7001,57.5115],[12.0762,57.4877]]]}},{"type":"Feature","properties":{"layer":"cable","id":"globalconnect-3-gc3","name":"GlobalConnect 3 (GC3)"},"geometry":{"type":"MultiLineString","coordinates":[[[11.1494,55.3261],[11.0251,55.3346],[10.7996,55.3244]]]}},{"type":"Feature","properties":{"layer":"cable","id":"globalconnect-kpn","name":"GlobalConnect-KPN"},"geometry":{"type":"MultiLineString","coordinates":[[[11.94,54.5772],[11.8126,54.494],[11.8126,54.2975],[12.1325,54.0792]]]}},{"type":"Feature","properties":{"layer":"cable","id":"globalconnect-denmark-sweden","name":"GlobalConnect Denmark-Sweden"},"geometry":{"type":"MultiLineString","coordinates":[[[12.415,55.6476],[12.4876,55.5579],[12.6001,55.5261],[12.7126,55.5261],[12.9167,55.5336]]]}},{"type":"Feature","properties":{"layer":"cable","id":"kattegat-2","name":"Kattegat 2"},"geometry":{"type":"MultiLineString","coordinates":[[[10.5146,57.2449],[10.6876,57.2386],[10.967,57.2726]],[[11.1993,57.3138],[11.7001,57.0249],[12.1501,56.8407],[12.6834,56.6834]]]}},{"type":"Feature","properties":{"layer":"cable","id":"latvia-sweden-1-lv-se-1","name":"Latvia-Sweden 1 (LV-SE 1)"},"geometry":{"type":"MultiLineString","coordinates":[[[21.5701,57.3897],[21.1501,57.451],[19.5751,58.0513],[18.3376,58.4067],[18.0001,58.7586],[17.9465,58.9031]]]}},{"type":"Feature","properties":{"layer":"cable","id":"scandinavian-ring-north","name":"Scandinavian Ring North"},"geometry":{"type":"MultiLineString","coordinates":[[[12.6405,56.0707],[12.6681,56.0573],[12.6958,56.0439],[12.683,56.0247],[12.6703,56.0056],[12.6418,56.0195],[12.6132,56.0334],[12.6269,56.052],[12.6405,56.0707]]]}},{"type":"Feature","properties":{"layer":"cable","id":"scandinavian-ring-south","name":"Scandinavian Ring South"},"geometry":{"type":"MultiLineString","coordinates":[[[12.6703,55.5937],[12.8251,55.5897],[12.9188,55.5568],[12.7688,55.5579],[12.6703,55.5937]]]}},{"type":"Feature","properties":{"layer":"cable","id":"sweden-estonia-ee-s-1","name":"Sweden-Estonia (EE-S 1)"},"geometry":{"type":"MultiLineString","coordinates":[[[24.7525,59.4364],[24.4126,59.5088],[23.8501,59.4517],[23.1751,59.2222],[22.7364,59.0001],[22.0501,59.1069],[20.2501,59.2797],[18.9001,59.2797],[18.6884,59.2928]]]}},{"type":"Feature","properties":{"layer":"cable","id":"baltic-sea-submarine-cable","name":"Baltic Sea Submarine Cable"},"geometry":{"type":"MultiLineString","coordinates":[[[21.3751,59.5374],[20.2501,59.4517],[18.9001,59.3372],[18.0628,59.3323],[18.9001,59.3945],[20.2501,59.5088],[21.3751,59.6228],[23.8501,59.6797],[24.4126,59.7931],[24.9325,60.1712],[24.9188,60.0749],[24.8626,59.9624],[24.7501,59.6797],[24.7525,59.4364],[24.4126,59.5659],[23.8501,59.5659],[21.3751,59.5374]]]}},{"type":"Feature","properties":{"layer":"cable","id":"finland-estonia-3-eesf-3","name":"Finland-Estonia 3 (EESF-3)"},"geometry":{"type":"MultiLineString","coordinates":[[[24.2766,59.401],[24.4126,59.6797],[24.7501,59.9624],[24.9325,60.1712]]]}},{"type":"Feature","properties":{"layer":"cable","id":"bcs-east","name":"BCS East"},"geometry":{"type":"MultiLineString","coordinates":[[[21.0112,56.5084],[20.8126,56.4075],[20.8126,56.1577],[21.0827,56.0285]]]}},{"type":"Feature","properties":{"layer":"cable_landing","id":"klagshamn-sweden","name":"Klagshamn, Sweden"},"geometry":{"type":"Point","coordinates":[12.9167,55.5333]}},{"type":"Feature","properties":{"layer":"cable_landing","id":"brondby-denmark","name":"Brondby, Denmark"},"geometry":{"type":"Point","coordinates":[12.4149,55.6472]}},{"type":"Feature","properties":{"layer":"cable_landing","id":"nybor-denmark","name":"Nybor, Denmark"},"geometry":{"type":"Point","coordinates":[10.7995,55.3241]}},{"type":"Feature","properties":{"layer":"cable_landing","id":"korsor-denmark","name":"Korsor, Denmark"},"geometry":{"type":"Point","coordinates":[11.1494,55.3258]}},{"type":"Feature","properties":{"layer":"cable_landing","id":"rostock-germany","name":"Rostock, Germany"},"geometry":{"type":"Point","coordinates":[12.1324,54.0789]}},{"type":"Feature","properties":{"layer":"cable_landing","id":"markgrafenheide-germany","name":"Markgrafenheide, Germany"},"geometry":{"type":"Point","coordinates":[12.1495,54.1914]}},{"type":"Feature","properties":{"layer":"cable_landing","id":"osterby-denmark","name":"Osterby, Denmark"},"geometry":{"type":"Point","coordinates":[11.1993,57.3135]}},{"type":"Feature","properties":{"layer":"cable_landing","id":"kristinelund-sweden","name":"Kristinelund, Sweden"},"geometry":{"type":"Point","coordinates":[12.5886,56.1347]}},{"type":"Feature","properties":{"layer":"cable_landing","id":"sylt-germany","name":"Sylt, Germany"},"geometry":{"type":"Point","coordinates":[8.3834,54.8985]}},{"type":"Feature","properties":{"layer":"cable_landing","id":"alsgarde-denmark","name":"Alsgarde, Denmark"},"geometry":{"type":"Point","coordinates":[12.5369,56.0749]}},{"type":"Feature","properties":{"layer":"cable_landing","id":"vaasa-finland","name":"Vaasa, Finland"},"geometry":{"type":"Point","coordinates":[21.6164,63.0952]}},{"type":"Feature","properties":{"layer":"cable_landing","id":"ume-sweden","name":"Ume\u00e5, Sweden"},"geometry":{"type":"Point","coordinates":[20.263,63.8259]}},{"type":"Feature","properties":{"layer":"cable_landing","id":"nynashamn-sweden","name":"Nynashamn, Sweden"},"geometry":{"type":"Point","coordinates":[17.9465,58.9029]}},{"type":"Feature","properties":{"layer":"cable_landing","id":"meremisa-estonia","name":"Merem\u00f6isa, Estonia"},"geometry":{"type":"Point","coordinates":[24.2766,59.4008]}},{"type":"Feature","properties":{"layer":"cable_landing","id":"blaabjerg-denmark","name":"Blaabjerg, Denmark"},"geometry":{"type":"Point","coordinates":[8.3292,55.7517]}},{"type":"Feature","properties":{"layer":"cable_landing","id":"endrup-denmark","name":"Endrup, Denmark"},"geometry":{"type":"Point","coordinates":[8.7184,55.5231]}},{"type":"Feature","properties":{"layer":"cable_landing","id":"trondheim-norway","name":"Trondheim, Norway"},"geometry":{"type":"Point","coordinates":[10.3921,63.431]}},{"type":"Feature","properties":{"layer":"cable_landing","id":"brnnysund-norway","name":"Br\u00f8nn\u00f8ysund, Norway"},"geometry":{"type":"Point","coordinates":[12.2077,65.4736]}},{"type":"Feature","properties":{"layer":"cable_landing","id":"rrvik-norway","name":"R\u00f8rvik, Norway"},"geometry":{"type":"Point","coordinates":[11.2373,64.8621]}},{"type":"Feature","properties":{"layer":"cable_landing","id":"varberg-sweden","name":"Varberg, Sweden"},"geometry":{"type":"Point","coordinates":[12.2513,57.1053]}},{"type":"Feature","properties":{"layer":"cable_landing","id":"laeso-denmark","name":"Laeso, Denmark"},"geometry":{"type":"Point","coordinates":[10.8871,57.257]}},{"type":"Feature","properties":{"layer":"cable_landing","id":"hirtshals-denmark","name":"Hirtshals, Denmark"},"geometry":{"type":"Point","coordinates":[9.9593,57.5882]}},{"type":"Feature","properties":{"layer":"cable_landing","id":"larvik-norway","name":"Larvik, Norway"},"geometry":{"type":"Point","coordinates":[10.0164,59.0811]}},{"type":"Feature","properties":{"layer":"cable_landing","id":"nybro-sweden","name":"Nybro, Sweden"},"geometry":{"type":"Point","coordinates":[15.9087,56.7438]}},{"type":"Feature","properties":{"layer":"cable_landing","id":"klaipeda-lithuania","name":"Klaipeda, Lithuania"},"geometry":{"type":"Point","coordinates":[21.15,55.6957]}},{"type":"Feature","properties":{"layer":"cable_landing","id":"rdvig-denmark","name":"R\u00f8dvig, Denmark"},"geometry":{"type":"Point","coordinates":[12.3719,55.2561]}},{"type":"Feature","properties":{"layer":"cable_landing","id":"rnne-denmark","name":"R\u00f8nne, Denmark"},"geometry":{"type":"Point","coordinates":[14.7083,55.101]}},{"type":"Feature","properties":{"layer":"cable_landing","id":"hanko-finland","name":"Hanko, Finland"},"geometry":{"type":"Point","coordinates":[22.9682,59.8232]}},{"type":"Feature","properties":{"layer":"cable_landing","id":"tjele-denmark","name":"Tjele, Denmark"},"geometry":{"type":"Point","coordinates":[9.6117,56.5108]}},{"type":"Feature","properties":{"layer":"cable_landing","id":"sventoji-lithuania","name":"Sventoji, Lithuania"},"geometry":{"type":"Point","coordinates":[21.0824,56.0283]}},{"type":"Feature","properties":{"layer":"cable_landing","id":"liepaja-latvia","name":"Liepaja, Latvia"},"geometry":{"type":"Point","coordinates":[21.0113,56.5082]}},{"type":"Feature","properties":{"layer":"cable_landing","id":"kotka-finland","name":"Kotka, Finland"},"geometry":{"type":"Point","coordinates":[26.8836,60.501]}},{"type":"Feature","properties":{"layer":"cable_landing","id":"helsinki-finland","name":"Helsinki, Finland"},"geometry":{"type":"Point","coordinates":[24.9325,60.1711]}},{"type":"Feature","properties":{"layer":"cable_landing","id":"stavsnas-sweden","name":"Stavsnas, Sweden"},"geometry":{"type":"Point","coordinates":[18.6883,59.2928]}},{"type":"Feature","properties":{"layer":"cable_landing","id":"mariehamn-finland","name":"Mariehamn, Finland"},"geometry":{"type":"Point","coordinates":[19.9379,60.1138]}},{"type":"Feature","properties":{"layer":"cable_landing","id":"haradsholm-finland","name":"Haradsholm, Finland"},"geometry":{"type":"Point","coordinates":[22.3021,60.301]}},{"type":"Feature","properties":{"layer":"cable_landing","id":"tallinn-estonia","name":"Tallinn, Estonia"},"geometry":{"type":"Point","coordinates":[24.7524,59.4362]}},{"type":"Feature","properties":{"layer":"cable_landing","id":"stockholm-sweden","name":"Stockholm, Sweden"},"geometry":{"type":"Point","coordinates":[18.0629,59.3322]}},{"type":"Feature","properties":{"layer":"cable_landing","id":"skalvik-sweden","name":"Skalvik, Sweden"},"geometry":{"type":"Point","coordinates":[12.6833,56.6832]}},{"type":"Feature","properties":{"layer":"cable_landing","id":"vestero-denmark","name":"Vestero, Denmark"},"geometry":{"type":"Point","coordinates":[10.967,57.2723]}},{"type":"Feature","properties":{"layer":"cable_landing","id":"lyngsa-denmark","name":"Lyngsa, Denmark"},"geometry":{"type":"Point","coordinates":[10.5146,57.2448]}},{"type":"Feature","properties":{"layer":"cable_landing","id":"pedersker-denmark","name":"Pedersker, Denmark"},"geometry":{"type":"Point","coordinates":[14.9922,55.0309]}},{"type":"Feature","properties":{"layer":"cable_landing","id":"katthammarsvik-sweden","name":"Katthammarsvik, Sweden"},"geometry":{"type":"Point","coordinates":[18.8453,57.431]}},{"type":"Feature","properties":{"layer":"cable_landing","id":"koobrzeg-poland","name":"Ko\u0142obrzeg, Poland"},"geometry":{"type":"Point","coordinates":[15.5749,54.1723]}},{"type":"Feature","properties":{"layer":"cable_landing","id":"ystad-sweden","name":"Ystad, Sweden"},"geometry":{"type":"Point","coordinates":[13.8283,55.4313]}},{"type":"Feature","properties":{"layer":"cable_landing","id":"gedser-denmark","name":"Gedser, Denmark"},"geometry":{"type":"Point","coordinates":[11.929,54.5763]}},{"type":"Feature","properties":{"layer":"cable_landing","id":"logi-russia","name":"Logi, Russia"},"geometry":{"type":"Point","coordinates":[28.4999,59.7999]}},{"type":"Feature","properties":{"layer":"cable_landing","id":"krdla-estonia","name":"K\u00e4rdla, Estonia"},"geometry":{"type":"Point","coordinates":[22.738,59.0009]}},{"type":"Feature","properties":{"layer":"cable_landing","id":"kungsbacka-sweden","name":"Kungsbacka, Sweden"},"geometry":{"type":"Point","coordinates":[12.0762,57.4875]}},{"type":"Feature","properties":{"layer":"cable_landing","id":"helsingborg-sweden","name":"Helsingborg, Sweden"},"geometry":{"type":"Point","coordinates":[12.6959,56.0438]}},{"type":"Feature","properties":{"layer":"cable_landing","id":"saeby-denmark","name":"Saeby, Denmark"},"geometry":{"type":"Point","coordinates":[10.5166,57.3308]}},{"type":"Feature","properties":{"layer":"cable_landing","id":"helsingr-denmark","name":"Helsing\u00f8r, Denmark"},"geometry":{"type":"Point","coordinates":[12.5922,56.0304]}},{"type":"Feature","properties":{"layer":"cable_landing","id":"dragor-denmark","name":"Dragor, Denmark"},"geometry":{"type":"Point","coordinates":[12.6702,55.5935]}},{"type":"Feature","properties":{"layer":"cable_landing","id":"bunkeflostand-sweden","name":"Bunkeflostand, Sweden"},"geometry":{"type":"Point","coordinates":[12.9187,55.5568]}},{"type":"Feature","properties":{"layer":"cable_landing","id":"tuborg-denmark","name":"Tuborg, Denmark"},"geometry":{"type":"Point","coordinates":[12.5456,55.722]}},{"type":"Feature","properties":{"layer":"cable_landing","id":"barsebck-sweden","name":"Barseb\u00e4ck, Sweden"},"geometry":{"type":"Point","coordinates":[12.9554,55.7704]}},{"type":"Feature","properties":{"layer":"cable_landing","id":"puttgarden-germany","name":"Puttgarden, Germany"},"geometry":{"type":"Point","coordinates":[11.2125,54.4961]}},{"type":"Feature","properties":{"layer":"cable_landing","id":"rodbyhavn-denmark","name":"Rodbyhavn, Denmark"},"geometry":{"type":"Point","coordinates":[11.3587,54.6631]}},{"type":"Feature","properties":{"layer":"cable_landing","id":"ventspils-latvia","name":"Ventspils, Latvia"},"geometry":{"type":"Point","coordinates":[21.57,57.3895]}},{"type":"Feature","properties":{"layer":"cable_landing","id":"farosund-sweden","name":"Farosund, Sweden"},"geometry":{"type":"Point","coordinates":[19.0553,57.863]}},{"type":"Feature","properties":{"layer":"cable_landing","id":"wilhelmshaven-germany","name":"Wilhelmshaven, Germany"},"geometry":{"type":"Point","coordinates":[8.1069,53.5323]}},{"type":"Feature","properties":{"layer":"cable_landing","id":"espoo-finland","name":"Espoo, Finland"},"geometry":{"type":"Point","coordinates":[24.6558,60.2068]}},{"type":"Feature","properties":{"layer":"cable_landing","id":"capri-strand-sweden","name":"Capri Strand, Sweden"},"geometry":{"type":"Point","coordinates":[11.1184,58.9683]}},{"type":"Feature","properties":{"layer":"cable_landing","id":"moss-norway","name":"Moss, Norway"},"geometry":{"type":"Point","coordinates":[10.7008,59.4592]}},{"type":"Feature","properties":{"layer":"cable_landing","id":"drbak-norway","name":"Dr\u00f8bak, Norway"},"geometry":{"type":"Point","coordinates":[10.6308,59.6645]}},{"type":"Feature","properties":{"layer":"cable_landing","id":"arendal-norway","name":"Arendal, Norway"},"geometry":{"type":"Point","coordinates":[8.7587,58.47]}},{"type":"Feature","properties":{"layer":"cable_landing","id":"oslo-norway","name":"Oslo, Norway"},"geometry":{"type":"Point","coordinates":[10.75,59.9123]}},{"type":"Feature","properties":{"layer":"cable_landing","id":"sassnitz-germany","name":"Sassnitz, Germany"},"geometry":{"type":"Point","coordinates":[13.6487,54.5196]}},{"type":"Feature","properties":{"layer":"cable_landing","id":"tejn-denmark","name":"Tejn, Denmark"},"geometry":{"type":"Point","coordinates":[14.8363,55.2482]}},{"type":"Feature","properties":{"layer":"cable_landing","id":"nsby-sweden","name":"N\u00e4sby, Sweden"},"geometry":{"type":"Point","coordinates":[16.4681,56.2457]}},{"type":"Feature","properties":{"layer":"cable_landing","id":"byxelkrok-sweden","name":"Byxelkrok, Sweden"},"geometry":{"type":"Point","coordinates":[17.0085,57.3248]}},{"type":"Feature","properties":{"layer":"cable_landing","id":"hasle-denmark","name":"Hasle, Denmark"},"geometry":{"type":"Point","coordinates":[14.7082,55.1826]}},{"type":"Feature","properties":{"layer":"cable_landing","id":"uto-sweden","name":"Uto, Sweden"},"geometry":{"type":"Point","coordinates":[18.2503,58.9361]}},{"type":"Feature","properties":{"layer":"cable_landing","id":"visby-sweden","name":"Visby, Sweden"},"geometry":{"type":"Point","coordinates":[18.3,57.6384]}},{"type":"Feature","properties":{"layer":"cable_landing","id":"borbby-strandbad-sweden","name":"Borbby Strandbad, Sweden"},"geometry":{"type":"Point","coordinates":[14.2158,55.4339]}},{"type":"Feature","properties":{"layer":"cable_landing","id":"juelsminde-denmark","name":"Juelsminde, Denmark"},"geometry":{"type":"Point","coordinates":[9.9972,55.7086]}},{"type":"Feature","properties":{"layer":"cable_landing","id":"bogense-denmark","name":"Bogense, Denmark"},"geometry":{"type":"Point","coordinates":[10.0914,55.5678]}},{"type":"Feature","properties":{"layer":"cable_landing","id":"oskarshamn-sweden","name":"Oskarshamn, Sweden"},"geometry":{"type":"Point","coordinates":[16.4425,57.2652]}},{"type":"Feature","properties":{"layer":"cable_landing","id":"vstervik-sweden","name":"V\u00e4stervik, Sweden"},"geometry":{"type":"Point","coordinates":[16.637,57.756]}},{"type":"Feature","properties":{"layer":"cable_landing","id":"nothamnsbacken-sweden","name":"Nothamnsbacken, Sweden"},"geometry":{"type":"Point","coordinates":[18.5654,60.032]}},{"type":"Feature","properties":{"layer":"cable_landing","id":"hamns-finland","name":"Hamn\u00e4s, Finland"},"geometry":{"type":"Point","coordinates":[19.805,60.0993]}},{"type":"Feature","properties":{"layer":"cable_landing","id":"lokalahti-finland","name":"Lokalahti, Finland"},"geometry":{"type":"Point","coordinates":[21.4462,60.6795]}},{"type":"Feature","properties":{"layer":"cable_landing","id":"skatrarna-finland","name":"Skat\u00f6rarna, Finland"},"geometry":{"type":"Point","coordinates":[19.7248,60.2726]}},{"type":"Feature","properties":{"layer":"cable_landing","id":"esbjerg-denmark","name":"Esbjerg, Denmark"},"geometry":{"type":"Point","coordinates":[8.4569,55.4652]}},{"type":"Feature","properties":{"layer":"cable_landing","id":"zelenogradsk-russia","name":"Zelenogradsk, Russia"},"geometry":{"type":"Point","coordinates":[20.5984,54.9754]}},{"type":"Feature","properties":{"layer":"cable_landing","id":"lerkil-sweden","name":"Lerkil, Sweden"},"geometry":{"type":"Point","coordinates":[11.8994,57.4554]}},{"type":"Feature","properties":{"layer":"cable_landing","id":"sthammar-sweden","name":"\u00d6sthammar, Sweden"},"geometry":{"type":"Point","coordinates":[18.3657,60.2602]}},{"type":"Feature","properties":{"layer":"cable_landing","id":"kihelkonna-estonia","name":"Kihelkonna, Estonia"},"geometry":{"type":"Point","coordinates":[22.0381,58.36]}},{"type":"Feature","properties":{"layer":"cable_landing","id":"kingisepp-russia","name":"Kingisepp, Russia"},"geometry":{"type":"Point","coordinates":[28.6698,59.4459]}},{"type":"Feature","properties":{"layer":"cable_landing","id":"fano-denmark","name":"Fano, Denmark"},"geometry":{"type":"Point","coordinates":[8.4069,55.4485]}},{"type":"Feature","properties":{"layer":"cable_landing","id":"hanstholm-denmark","name":"Hanstholm, Denmark"},"geometry":{"type":"Point","coordinates":[8.6162,57.1116]}},{"type":"Feature","properties":{"layer":"cable_landing","id":"houstrup-denmark","name":"Houstrup, Denmark"},"geometry":{"type":"Point","coordinates":[8.1931,55.7646]}},{"type":"Feature","properties":{"layer":"cable_landing","id":"brekstad-norway","name":"Brekstad, Norway"},"geometry":{"type":"Point","coordinates":[9.6631,63.6884]}},{"type":"Feature","properties":{"layer":"cable_landing","id":"tjeldbergodden-norway","name":"Tjeldbergodden, Norway"},"geometry":{"type":"Point","coordinates":[8.694,63.4082]}},{"type":"Feature","properties":{"layer":"cable_landing","id":"hitra-norway","name":"Hitra, Norway"},"geometry":{"type":"Point","coordinates":[8.9753,63.5046]}},{"type":"Feature","properties":{"layer":"cable_landing","id":"edya-norway","name":"Ed\u00f8ya, Norway"},"geometry":{"type":"Point","coordinates":[8.0934,63.301]}},{"type":"Feature","properties":{"layer":"cable_landing","id":"kista-sweden","name":"Kista, Sweden"},"geometry":{"type":"Point","coordinates":[17.9436,59.4029]}},{"type":"Feature","properties":{"layer":"cable_landing","id":"kkar-finland","name":"K\u00f6kar, Finland"},"geometry":{"type":"Point","coordinates":[20.908,59.921]}}]}